      2.10          N: GNSS NAV DATA                        RINEX VERSION / TYPE
fic2rin                                 07/04/2018 00:19:03 PGM / RUN BY / DATE
                                                            END OF HEADER
 3 18  7  4  0  0  0.0 9.986758232117e-05 6.252776074689e-12 0.000000000000e+00
    1.200000000000e+01-6.275000000000e+01 4.450185368083e-09-3.039367008876e+00
   -3.300607204437e-06 1.494630705565e-03 1.046434044838e-05 5.153732273102e+03
    2.592000000000e+05-4.284083843231e-08-2.332183078866e+00-4.470348358154e-08
    9.612235414473e-01 1.753437500000e+02 4.713863496478e-01-7.905686446430e-09
   -2.214377952016e-11 1.000000000000e+00 2.008000000000e+03 0.000000000000e+00
    2.400000000000e+00 0.000000000000e+00 2.328306436539e-09 1.200000000000e+01
    2.520060000000e+05 4.000000000000e+00
 2 18  7  4  0  0  0.0 6.791530176997e-05-1.080024958355e-11 0.000000000000e+00
    9.500000000000e+01-4.490625000000e+01 4.948063249553e-09-1.803632343612e+00
   -2.017244696617e-06 1.791861024685e-02 3.598630428314e-06 5.153767992020e+03
    2.592000000000e+05 3.371387720108e-07 2.846707200507e+00 1.639127731323e-07
    9.510547569166e-01 2.992187500000e+02-1.848137668981e+00-8.196769999800e-09
    1.117903708034e-10 1.000000000000e+00 2.008000000000e+03 0.000000000000e+00
    3.400000000000e+00 0.000000000000e+00-2.048909664154e-08 9.500000000000e+01
    2.520060000000e+05 4.000000000000e+00
 7 18  7  4  0  0  0.0 1.648701727390e-04-6.366462912410e-12 0.000000000000e+00
    1.600000000000e+01 1.468750000000e+00 4.648407910562e-09-2.801561058503e+00
   -3.352761268616e-08 1.184982887935e-02 6.521120667458e-06 5.153650802612e+03
    2.592000000000e+05-1.490116119385e-08-2.207767164193e-01-1.415610313416e-07
    9.584593460332e-01 2.519375000000e+02-2.518379083180e+00-7.971046311788e-09
   -2.442958901901e-10 1.000000000000e+00 2.008000000000e+03 0.000000000000e+00
    2.400000000000e+00 0.000000000000e+00-1.117587089539e-08 1.600000000000e+01
    2.520060000000e+05 4.000000000000e+00
 8 18  7  4  0  0  0.0-1.069451682270e-04-1.250555214938e-12 0.000000000000e+00
    5.300000000000e+01 5.903125000000e+01 4.355538568521e-09 3.597082484810e-01
    3.136694431305e-06 3.451468539424e-03 5.636364221573e-06 5.153591329575e+03
    2.592000000000e+05 6.705522537231e-08 1.843445948797e+00-6.146728992462e-08
    9.692177626216e-01 2.737812500000e+02-4.039364079270e-01-8.198912946205e-09
    3.425142670940e-10 1.000000000000e+00 2.008000000000e+03 0.000000000000e+00
    2.400000000000e+00 0.000000000000e+00 5.122274160385e-09 5.300000000000e+01
    2.520060000000e+05 4.000000000000e+00
 5 18  7  4  0  0  0.0-5.145091563463e-06 5.684341886081e-13 0.000000000000e+00
    6.200000000000e+01-5.765625000000e+01 4.908418741057e-09 8.673415475940e-01
   -2.713873982430e-06 5.442834109999e-03 9.175390005112e-06 5.153737752914e+03
    2.592000000000e+05 7.450580596924e-09-2.354526656789e+00 3.911554813385e-08
    9.481283355909e-01 1.959375000000e+02 6.257519293081e-01-8.210699151434e-09
   -6.678849629467e-11 1.000000000000e+00 2.008000000000e+03 0.000000000000e+00
    2.400000000000e+00 0.000000000000e+00-1.117587089539e-08 6.200000000000e+01
    2.520060000000e+05 4.000000000000e+00
 4 18  7  4  0  0  0.0 7.561454549432e-05 3.524291969370e-12 0.000000000000e+00
    1.250000000000e+02 3.571875000000e+01 5.170215360223e-09 1.267592379191e+00
    1.803040504456e-06 9.810351766646e-03 9.417533874512e-06 5.153712141037e+03
    2.592000000000e+05-1.173466444016e-07 8.370572474114e-01 2.793967723846e-08
    9.788187447582e-01 2.085312500000e+02 9.324730713720e-01-7.844255316149e-09
   -2.121516941125e-10 1.000000000000e+00 2.008000000000e+03 0.000000000000e+00
    3.400000000000e+00 6.300000000000e+01-1.955777406693e-08 1.250000000000e+02
    2.520060000000e+05 4.000000000000e+00
18 18  7  4  0  0  0.0 2.929801121354e-05 4.547473508865e-12 0.000000000000e+00
    2.000000000000e+00-6.134375000000e+01 4.994850912732e-09-2.387030987822e+00
   -3.183260560036e-06 1.474281225819e-02 3.505498170853e-06 5.153644821167e+03
    2.592000000000e+05 1.788139343262e-07 2.860648283152e+00 4.656612873077e-08
    9.503816185692e-01 3.014687500000e+02 1.318306163578e+00-8.254986710474e-09
    1.107188976008e-10 1.000000000000e+00 2.008000000000e+03 0.000000000000e+00
    2.400000000000e+00 0.000000000000e+00-6.984919309616e-09 2.000000000000e+00
    2.520060000000e+05 4.000000000000e+00
25 18  7  4  0  0  0.0-6.106286309659e-04-5.798028723802e-12 0.000000000000e+00
    1.200000000000e+01 2.943750000000e+01 3.856589213849e-09 2.427743894101e+00
    1.478940248489e-06 7.462525391020e-03 9.052455425262e-06 5.153630599976e+03
    2.592000000000e+05 5.587935447693e-09 8.119548283549e-01-9.685754776001e-08
    9.740125263656e-01 2.114375000000e+02 8.695521221419e-01-7.693891910052e-09
   -9.714690370133e-11 1.000000000000e+00 2.008000000000e+03 0.000000000000e+00
    2.400000000000e+00 0.000000000000e+00 6.053596735001e-09 1.200000000000e+01
    2.520060000000e+05 4.000000000000e+00
21 18  7  4  0  0  0.0-3.726086579263e-04 5.343281372916e-12 0.000000000000e+00
    1.300000000000e+01-5.815625000000e+01 4.995565228201e-09 2.358069399650e+00
   -3.159046173096e-06 2.434946689755e-02 3.335997462273e-06 5.153679353714e+03
    2.592000000000e+05 3.054738044739e-07 2.853331134112e+00-1.769512891769e-07
    9.446326196946e-01 3.046562500000e+02-1.547049822138e+00-8.047835224640e-09
   -1.282196265764e-10 1.000000000000e+00 2.008000000000e+03 0.000000000000e+00
    2.400000000000e+00 0.000000000000e+00-1.024454832077e-08 1.300000000000e+01
    2.520060000000e+05 4.000000000000e+00
32 18  7  4  0  0  0.0-4.823561757803e-04 7.503331289627e-12 0.000000000000e+00
    1.000000000000e+01 3.434375000000e+01 4.804842998140e-09 7.512618755640e-01
    1.860782504082e-06 2.256683539599e-03 7.733702659607e-06 5.153677940369e+03
    2.592000000000e+05-2.235174179077e-08-1.293200332996e+00 6.705522537231e-08
    9.566552739949e-01 2.285625000000e+02-2.529968759080e+00-8.143910655139e-09
    1.375057276655e-10 1.000000000000e+00 2.008000000000e+03 0.000000000000e+00
    2.400000000000e+00 0.000000000000e+00 4.656612873077e-10 1.000000000000e+01
    2.520060000000e+05 4.000000000000e+00
16 18  7  4  0  0  0.0 1.913029700518e-05-1.364242052659e-12 0.000000000000e+00
    1.000000000000e+01 3.759375000000e+01 3.643723204268e-09 1.001338927614e+00
    2.050772309303e-06 9.986205608584e-03 9.655952453613e-06 5.153661035538e+03
    2.592000000000e+05-9.872019290924e-08 8.910789514379e-01 1.005828380585e-07
    9.867721709989e-01 2.078125000000e+02 5.220188001784e-01-7.680677073887e-09
   -2.217949529358e-10 1.000000000000e+00 2.008000000000e+03 0.000000000000e+00
    2.400000000000e+00 0.000000000000e+00-1.071020960808e-08 1.000000000000e+01
    2.520060000000e+05 4.000000000000e+00
12 18  7  4  0  0  0.0 3.233244642615e-04-2.501110429876e-12 0.000000000000e+00
    1.500000000000e+01 2.921875000000e+01 3.605150168975e-09 2.902478788623e+00
    1.523643732071e-06 7.148022879846e-03 9.248033165932e-06 5.153568220139e+03
    2.592000000000e+05 2.980232238770e-08 8.721732061320e-01-1.862645149231e-08
    9.863651257467e-01 2.132500000000e+02 1.001349988738e+00-7.504241153194e-09
   -6.500270762369e-11 1.000000000000e+00 2.008000000000e+03 0.000000000000e+00
    2.400000000000e+00 0.000000000000e+00-1.257285475731e-08 1.500000000000e+01
    2.520060000000e+05 4.000000000000e+00
22 18  7  4  0  0  0.0-4.463731311262e-04-1.216449163621e-11 0.000000000000e+00
    5.800000000000e+01-6.062500000000e+01 5.344508334510e-09-6.584459379105e-01
   -3.157183527946e-06 7.312573026866e-03 9.985640645027e-06 5.153780593872e+03
    2.592000000000e+05-9.126961231232e-08-2.393147253743e+00-2.793967723846e-08
    9.253818041980e-01 1.669687500000e+02-1.516760550959e+00-8.534284058615e-09
    2.142946405177e-12 1.000000000000e+00 2.008000000000e+03 0.000000000000e+00
    2.400000000000e+00 0.000000000000e+00-1.769512891769e-08 5.800000000000e+01
    2.520060000000e+05 4.000000000000e+00
24 18  7  4  0  0  0.0-5.210051313043e-05-5.684341886081e-13 0.000000000000e+00
    6.700000000000e+01 2.937500000000e+00 5.015923219050e-09-1.831454328841e+00
    2.160668373108e-07 6.988373701461e-03 5.923211574554e-06 5.153637796402e+03
    2.592000000000e+05 1.676380634308e-08-2.811194495477e-01-1.136213541031e-07
    9.414978247063e-01 2.562500000000e+02 5.397526354581e-01-8.245700609385e-09
   -2.160804291886e-10 1.000000000000e+00 2.008000000000e+03 0.000000000000e+00
    2.400000000000e+00 0.000000000000e+00 2.793967723846e-09 6.700000000000e+01
    2.520060000000e+05 4.000000000000e+00
23 18  7  4  0  0  0.0-2.150102518499e-04 5.684341886081e-13 0.000000000000e+00
    6.900000000000e+01 3.381250000000e+01 5.024852162405e-09-1.295757755180e+00
    1.708045601845e-06 1.263672963250e-02 7.832422852516e-06 5.153769771576e+03
    2.592000000000e+05 3.390014171600e-07-1.300328832898e+00 4.470348358154e-08
    9.431102296066e-01 2.161875000000e+02-2.346688833261e+00-8.173554747077e-09
    2.160804291886e-10 1.000000000000e+00 2.008000000000e+03 0.000000000000e+00
    2.400000000000e+00 0.000000000000e+00-2.002343535423e-08 6.900000000000e+01
    2.520060000000e+05 4.000000000000e+00
17 18  7  4  0  0  0.0-8.190190419555e-05 3.751665644813e-12 0.000000000000e+00
    4.300000000000e+01 4.884375000000e+01 4.150887186827e-09-1.839398584048e-02
    2.386048436165e-06 1.237098674756e-02 6.023794412613e-06 5.153581731796e+03
    2.592000000000e+05-1.657754182816e-07 1.906499997240e+00 5.774199962616e-08
    9.827269479620e-01 2.780312500000e+02-1.777330804253e+00-8.215699359713e-09
    3.289422731946e-10 1.000000000000e+00 2.008000000000e+03 0.000000000000e+00
    2.400000000000e+00 0.000000000000e+00-1.117587089539e-08 4.300000000000e+01
    2.520060000000e+05 4.000000000000e+00
